[Satellite]
VERSION=1.1
NAME=IRIDIUM 75 [+]
NICKNAME=IRIDIUM 75 [+]
TLE1=1 25346U 98032E   18020.87868441  .00000170  00000-0  53677-4 0  9999
TLE2=2 25346  86.3992 133.1850 0002117  96.2587 263.8850 14.34220636 30576
